NORAD_CAT_ID,OBJECT_NAME,OBJECT_TYPE,EPOCH,MEAN_MOTION,ECCENTRICITY,INCLINATION,RA_OF_ASC_NODE,ARG_OF_PERICENTER,MEAN_ANOMALY,BSTAR,MEAN_MOTION_DOT,MEAN_MOTION_DDOT,TLE_LINE0,TLE_LINE1,TLE_LINE2,SEMIMAJOR_AXIS,PERIOD,APOGEE,PERIGEE,DECAYED
51751.0,STARLINK-3506,PAYLOAD,2024-05-30 13:17:27,15.08842561,0.0001384,53.2182,338.7263,95.2372,264.8778,8.9512e-05,1.137e-05,0.0,0 STARLINK-3506,1 51751U 22016AP  24151.55378494  .00001137  00000-0  89512-4 0  9999,2 51751  53.2182 338.7263 0001384  95.2372 264.8778 15.08842561126975,6917.873,95.437,540.695,538.78,0.0
51751.0,STARLINK-3506,PAYLOAD,2024-05-30 19:38:58,15.08858149,0.0001254,53.2175,337.5373,110.2975,249.8152,-4.0737e-05,-9.37e-06,0.0,0 STARLINK-3506,1 51751U 22016AP  24151.81873725 -.00000937  00000-0 -40737-4 0  9990,2 51751  53.2175 337.5373 0001254 110.2975 249.8152 15.08858149127013,6917.825,95.436,540.557,538.822,0.0
51751.0,STARLINK-3506,PAYLOAD,2024-05-30 19:38:59,15.08846579,0.0001246,53.2177,337.538,102.6605,257.4527,9.3445e-05,1.2e-05,0.0,0 STARLINK-3506,1 51751U 22016AP  24151.81874112  .00001200  00000-0  93445-4 0  9997,2 51751  53.2177 337.5380 0001246 102.6605 257.4527 15.08846579127014,6917.86,95.437,540.587,538.863,0.0
51751.0,STARLINK-3506,PAYLOAD,2024-05-31 21:05:09,15.08848235,0.0001399,53.2182,332.7827,100.2494,259.8656,9.8469e-05,1.28e-05,0.0,0 STARLINK-3506,1 51751U 22016AP  24152.87858004  .00001280  00000-0  98469-4 0  9995,2 51751  53.2182 332.7827 0001399 100.2494 259.8656 15.08848235127179,6917.855,95.437,540.688,538.752,0.0
51751.0,STARLINK-3506,PAYLOAD,2024-06-01 05:02:05,15.08840781,0.000129,53.2175,331.292,77.8712,282.2425,2.4766e-05,1.06e-06,0.0,0 STARLINK-3506,1 51751U 22016AP  24153.20978569  .00000106  00000-0  24766-4 0  9997,2 51751  53.2175 331.2920 0001290  77.8712 282.2425 15.08840781127229,6917.878,95.438,540.635,538.851,0.0
51751.0,STARLINK-3506,PAYLOAD,2024-06-01 11:23:38,15.08835692,0.0001567,53.2169,330.1032,80.1122,280.0047,8.1726e-05,1.013e-05,0.0,0 STARLINK-3506,1 51751U 22016AP  24153.47474910  .00001013  00000-0  81726-4 0  9994,2 51751  53.2169 330.1032 0001567  80.1122 280.0047 15.08835692126144,6917.894,95.438,540.843,538.675,0.0
51751.0,STARLINK-3506,PAYLOAD,2024-06-02 11:14:25,15.08840555,0.0001411,53.2176,325.6457,88.1335,271.9819,6.6548e-05,7.71e-06,0.0,0 STARLINK-3506,1 51751U 22016AP  24154.46834677  .00000771  00000-0  66548-4 0  9999,2 51751  53.2176 325.6457 0001411  88.1335 271.9819 15.08840555127415,6917.879,95.438,540.72,538.768,0.0
51751.0,STARLINK-3506,PAYLOAD,2024-06-03 11:05:12,15.08838043,0.0001278,53.2167,321.1833,90.4511,269.6628,0.00013036,1.787e-05,0.0,0 STARLINK-3506,1 51751U 22016AP  24155.46194724  .00001787  00000-0  13036-3 0  9993,2 51751  53.2167 321.1833 0001278  90.4511 269.6628 15.08838043126440,6917.886,95.438,540.635,538.867,0.0
51751.0,STARLINK-3506,PAYLOAD,2024-06-03 17:26:44,15.08841796,0.0001379,53.216,319.994,87.9721,272.1429,0.00012384,1.684e-05,0.0,0 STARLINK-3506,1 51751U 22016AP  24155.72690567  .00001684  00000-0  12384-3 0  9999,2 51751  53.2160 319.9940 0001379  87.9721 272.1429 15.08841796127609,6917.875,95.437,540.694,538.786,0.0
51751.0,STARLINK-3506,PAYLOAD,2024-06-03 20:37:30,15.08847167,0.0001421,53.2163,319.3976,91.9871,268.1283,9.1649e-05,1.171e-05,0.0,0 STARLINK-3506,1 51751U 22016AP  24155.85938277  .00001171  00000-0  91649-4 0  9999,2 51751  53.2163 319.3976 0001421  91.9871 268.1283 15.08847167126503,6917.858,95.437,540.707,538.74,0.0
51751.0,STARLINK-3506,PAYLOAD,2024-06-04 04:34:26,15.08843367,0.0001349,53.2151,317.9101,92.297,267.8177,5.1268e-05,5.28e-06,0.0,0 STARLINK-3506,1 51751U 22016AP  24156.19058558  .00000528  00000-0  51268-4 0  9990,2 51751  53.2151 317.9101 0001349  92.2970 267.8177 15.08843367126558,6917.87,95.437,540.668,538.802,0.0
51751.0,STARLINK-3506,PAYLOAD,2024-06-04 20:28:18,15.08841138,0.0001557,53.2138,314.9372,90.0902,270.0268,7.0204e-05,8.29e-06,0.0,0 STARLINK-3506,1 51751U 22016AP  24156.85298727  .00000829  00000-0  70204-4 0  9992,2 51751  53.2138 314.9372 0001557  90.0902 270.0268 15.08841138127778,6917.877,95.437,540.819,538.665,0.0
51751.0,STARLINK-3506,PAYLOAD,2024-06-05 20:19:06,15.08837136,0.000169,53.2145,310.4768,89.3439,270.7747,-0.00010895,-2.021e-05,0.0,0 STARLINK-3506,1 51751U 22016AP  24157.84659724 -.00002021  00000-0 -10895-3 0  9997,2 51751  53.2145 310.4768 0001690  89.3439 270.7747 15.08837136127929,6917.889,95.438,540.923,538.585,0.0
51751.0,STARLINK-3506,PAYLOAD,2024-06-06 02:40:39,15.08830717,0.0003383,53.2192,309.2889,81.4831,278.6545,5.9832e-05,6.63e-06,0.0,0 STARLINK-3506,1 51751U 22016AP  24158.11156533  .00000663  00000-0  59832-4 0  9991,2 51751  53.2192 309.2889 0003383  81.4831 278.6545 15.08830717126842,6917.909,95.438,542.114,537.433,0.0
51751.0,STARLINK-3506,PAYLOAD,2024-06-06 16:59:06,15.0884476,0.0001409,53.2183,306.6105,83.0971,277.0181,0.00010225,1.34e-05,0.0,0 STARLINK-3506,1 51751U 22016AP  24158.70770924  .00001340  00000-0  10225-3 0  9997,2 51751  53.2183 306.6105 0001409  83.0971 277.0181 15.08844760128051,6917.866,95.437,540.706,538.756,0.0
51751.0,STARLINK-3506,PAYLOAD,2024-06-07 16:49:53,15.08904109,4.72e-05,53.2103,302.15,345.1794,14.9184,-0.0008246,-0.0001341,0.0,0 STARLINK-3506,1 51751U 22016AP  24159.70130928 -.00013410  00000-0 -82460-3 0  9995,2 51751  53.2103 302.1500 0000472 345.1794  14.9184 15.08904109128209,6917.684,95.433,539.876,539.223,0.0
51751.0,STARLINK-3506,PAYLOAD,2024-06-08 02:22:11,15.08852465,8.74e-05,53.2139,300.3673,61.2434,298.8646,0.0001583,2.233e-05,0.0,0 STARLINK-3506,1 51751U 22016AP  24160.09874562  .00002233  00000-0  15830-3 0  9994,2 51751  53.2139 300.3673 0000874  61.2434 298.8646 15.08852465128261,6917.842,95.437,540.312,539.103,0.0
51751.0,STARLINK-3506,PAYLOAD,2024-06-08 08:43:44,15.08842572,0.0001482,53.2159,299.1778,73.0483,287.0672,5.7925e-05,6.34e-06,0.0,0 STARLINK-3506,1 51751U 22016AP  24160.36371243  .00000634  00000-0  57925-4 0  9997,2 51751  53.2159 299.1778 0001482  73.0483 287.0672 15.08842572127182,6917.873,95.437,540.763,538.712,0.0
51751.0,STARLINK-3506,PAYLOAD,2024-06-09 08:34:32,15.08841935,0.00021,53.2136,294.7172,84.1633,275.9598,4.6489e-05,4.52e-06,0.0,0 STARLINK-3506,1 51751U 22016AP  24161.35731877  .00000452  00000-0  46489-4 0  9991,2 51751  53.2136 294.7172 0002100  84.1633 275.9598 15.08841935128450,6917.874,95.437,541.192,538.287,0.0
51751.0,STARLINK-3506,PAYLOAD,2024-06-09 14:56:04,15.08841957,0.0002047,53.2139,293.5288,85.8099,274.3127,5.0476e-05,5.15e-06,0.0,0 STARLINK-3506,1 51751U 22016AP  24161.62227807  .00000515  00000-0  50476-4 0  9995,2 51751  53.2139 293.5288 0002047  85.8099 274.3127 15.08841957127377,6917.874,95.437,541.155,538.323,0.0
51751.0,STARLINK-3506,PAYLOAD,2024-06-10 02:03:47,15.08838512,0.0001415,53.2137,291.4485,84.204,275.9113,-8.0523e-05,-1.569e-05,0.0,0 STARLINK-3506,1 51751U 22016AP  24162.08596334 -.00001569  00000-0 -80523-4 0  9998,2 51751  53.2137 291.4485 0001415  84.2040 275.9113 15.08838512128565,6917.885,95.438,540.729,538.771,0.0
51751.0,STARLINK-3506,PAYLOAD,2024-06-10 13:11:27,15.08872679,0.000263,53.2133,289.3656,80.4047,279.7242,-0.00029126,-4.925e-05,0.0,0 STARLINK-3506,1 51751U 22016AP  24162.54962536 -.00004925  00000-0 -29126-3 0  9990,2 51751  53.2133 289.3656 0002630  80.4047 279.7242 15.08872679128637,6917.781,95.435,541.465,537.826,0.0
51751.0,STARLINK-3506,PAYLOAD,2024-06-10 14:46:51,15.08849285,0.0001584,53.2134,289.0677,84.3393,275.778,7.2866e-05,8.72e-06,0.0,0 STARLINK-3506,1 51751U 22016AP  24162.61587148  .00000872  00000-0  72866-4 0  9995,2 51751  53.2134 289.0677 0001584  84.3393 275.7780 15.08849285127529,6917.852,95.437,540.813,538.621,0.0
51751.0,STARLINK-3506,PAYLOAD,2024-06-11 01:54:33,15.08833053,0.0001009,53.2182,286.9864,95.9661,264.1446,0.00035039,5.292e-05,0.0,0 STARLINK-3506,1 51751U 22016AP  24163.07955247  .00005292  00000-0  35039-3 0  9996,2 51751  53.2182 286.9864 0001009  95.9661 264.1446 15.08833053128713,6917.902,95.438,540.465,539.069,0.0
51751.0,STARLINK-3506,PAYLOAD,2024-06-11 14:37:38,15.08841352,0.0001512,53.2157,284.6078,98.5307,261.5857,0.00020096,2.912e-05,0.0,0 STARLINK-3506,1 51751U 22016AP  24163.60947401  .00002912  00000-0  20096-3 0  9991,2 51751  53.2157 284.6078 0001512  98.5307 261.5857 15.08841352127674,6917.876,95.437,540.787,538.695,0.0
51751.0,STARLINK-3506,PAYLOAD,2024-06-11 17:48:24,15.08844412,0.0001515,53.2179,284.0115,109.2978,250.8178,0.00015287,2.146e-05,0.0,0 STARLINK-3506,1 51751U 22016AP  24163.74195289  .00002146  00000-0  15287-3 0  9990,2 51751  53.2179 284.0115 0001515 109.2978 250.8178 15.08844412127690,6917.867,95.437,540.78,538.684,0.0
51751.0,STARLINK-3506,PAYLOAD,2024-06-12 12:53:03,15.08830647,0.0001324,53.2171,280.4448,89.7376,270.3768,-7.7232e-05,-1.516e-05,0.0,0 STARLINK-3506,1 51751U 22016AP  24164.53684984 -.00001516  00000-0 -77232-4 0  9994,2 51751  53.2171 280.4448 0001324  89.7376 270.3768 15.08830647128938,6917.909,95.438,540.69,538.858,0.0
51751.0,STARLINK-3506,PAYLOAD,2024-06-12 14:28:26,15.08831147,0.0001366,53.2177,280.148,89.583,270.5319,-6.8295e-05,-1.374e-05,0.0,0 STARLINK-3506,1 51751U 22016AP  24164.60308963 -.00001374  00000-0 -68295-4 0  9993,2 51751  53.2177 280.1480 0001366  89.5830 270.5319 15.08831147127823,6917.907,95.438,540.717,538.827,0.0
51751.0,STARLINK-3506,PAYLOAD,2024-06-13 12:43:49,15.08850309,0.0001225,53.217,275.9832,83.494,276.6192,0.00017065,2.43e-05,0.0,0 STARLINK-3506,1 51751U 22016AP  24165.53043232  .00002430  00000-0  17065-3 0  9991,2 51751  53.2170 275.9832 0001225  83.4940 276.6192 15.08850309129085,6917.849,95.437,540.561,538.866,0.0
51751.0,STARLINK-3506,PAYLOAD,2024-06-13 14:19:12,15.08854413,0.0001188,53.2168,275.6863,85.6388,274.474,0.00021281,3.102e-05,0.0,0 STARLINK-3506,1 51751U 22016AP  24165.59666949  .00003102  00000-0  21281-3 0  9995,2 51751  53.2168 275.6863 0001188  85.6388 274.4740 15.08854413127972,6917.836,95.437,540.523,538.879,0.0
